     3.04           N: GNSS NAV DATA    M: Mixed            RINEX VERSION / TYPE
CONVBIN 2.4.3                           20250914 121709 UTC PGM / RUN BY / DATE 
format: u-blox UBX                                          COMMENT             
log: D:\GPdata\9_14\NEW_2_updown.ubx                        COMMENT             
                                                            END OF HEADER       
G27 2025 09 14 14 00 00 -.251084566116D-04 -.909494701773D-12  .000000000000D+00
      .380000000000D+02  .940937500000D+02  .445197115675D-08  .588904210590D+00
      .488385558128D-05  .135270128958D-01  .791251659393D-05  .515366289902D+04
      .504000000000D+05 -.201165676117D-06 -.127316614974D+01  .165775418282D-06
      .954823416754D+00  .224562500000D+03  .852884223103D+00 -.821391357104D-08
     -.200722646618D-09  .100000000000D+01  .238400000000D+04  .000000000000D+00
      .200000000000D+01  .000000000000D+00  .186264514923D-08  .380000000000D+02
      .441660000000D+05  .400000000000D+01
G16 2025 09 14 14 00 00  .103515107185D-03  .829913915368D-11  .000000000000D+00
      .420000000000D+02  .343750000000D+02  .455197532233D-08  .145302574090D+01
      .177510082722D-05  .145067544654D-01  .909902155399D-05  .515356572914D+04
      .504000000000D+05 -.275671482086D-06 -.222070955509D+01 -.204890966415D-07
      .958964912966D+00  .209406250000D+03  .895287981801D+00 -.805962142987D-08
     -.463590738987D-09  .100000000000D+01  .238400000000D+04  .000000000000D+00
      .200000000000D+01  .000000000000D+00 -.107102096081D-07  .420000000000D+02
      .441660000000D+05  .400000000000D+01
G04 2025 09 14 14 00 00  .702356919646D-05  .352429196937D-11  .000000000000D+00
      .820000000000D+02 -.603437500000D+02  .433375194674D-08  .312851247190D+00
     -.327639281750D-05  .345899641979D-02  .801868736744D-05  .515358818054D+04
      .504000000000D+05  .223517417908D-07  .191853086290D+01 -.130385160446D-07
      .968688670503D+00  .226312500000D+03 -.295319147875D+01 -.789711466081D-08
      .125362364703D-09  .100000000000D+01  .238400000000D+04  .000000000000D+00
      .200000000000D+01  .000000000000D+00 -.465661287308D-08  .338000000000D+03
      .441660000000D+05  .400000000000D+01
G08 2025 09 14 14 00 00  .531287863851D-03 -.795807864051D-12  .000000000000D+00
      .106000000000D+03  .820312500000D+02  .469305262734D-08  .505458135960D+00
      .440143048763D-05  .106761170318D-01  .728666782379D-05  .515361855507D+04
      .504000000000D+05  .316649675369D-07 -.130374307450D+01  .257045030594D-06
      .945725230783D+00  .230593750000D+03  .463539793962D+00 -.823534303509D-08
     -.143220251413D-09  .100000000000D+01  .238400000000D+04  .000000000000D+00
      .280000000000D+01  .000000000000D+00  .465661287308D-08  .106000000000D+03
      .441660000000D+05  .400000000000D+01
G26 2025 09 14 14 00 00 -.262279529124D-03 -.170530256582D-11  .000000000000D+00
      .830000000000D+02  .276562500000D+02  .523628954105D-08  .236643417505D+01
      .129267573357D-05  .103476216318D-01  .847131013870D-05  .515362864876D+04
      .504000000000D+05 -.121071934700D-06 -.240125094508D+01 -.197440385818D-06
      .928874643997D+00  .200468750000D+03  .649501409541D+00 -.818105505950D-08
     -.319299014371D-09  .100000000000D+01  .238400000000D+04  .000000000000D+00
      .200000000000D+01  .000000000000D+00  .651925802231D-08  .830000000000D+02
      .439860000000D+05  .400000000000D+01
G31 2025 09 14 14 00 00 -.192104838789D-03  .159161572810D-11  .000000000000D+00
      .620000000000D+02 -.153750000000D+02  .478198490315D-08  .298364804339D+01
     -.884756445885D-06  .107900229050D-01  .773742794991D-05  .515371706581D+04
      .504000000000D+05  .279396772385D-07  .295192989038D+01 -.143423676491D-06
      .954833838582D+00  .225281250000D+03  .871451558884D+00 -.781746848608D-08
      .103575742917D-10  .100000000000D+01  .238400000000D+04  .000000000000D+00
      .200000000000D+01  .000000000000D+00 -.130385160446D-07  .620000000000D+02
      .441660000000D+05  .400000000000D+01
C29 2025 09 14 12 00 00  .496039865538D-03  .517541565159D-11  .000000000000D+00
      .100000000000D+01  .891093750000D+02  .407766985132D-08 -.266011166595D+01
      .450201332569D-05  .141190714203D-03  .507477670908D-05  .528261605263D+04
      .432000000000D+05 -.651925802231D-08 -.761167921471D+00 -.838190317154D-08
      .950161266533D+00  .255218750000D+03  .278194431014D+01 -.702922136671D-08
      .660741808263D-10  .000000000000D+00  .102800000000D+04  .000000000000D+00
      .200000000000D+01  .000000000000D+00  .200000000000D-08  .200000000000D-08
      .439500000000D+05  .100000000000D+01
C36 2025 09 14 12 00 00  .310087925754D-03  .535571587079D-12  .000000000000D+00
      .100000000000D+01  .104843750000D+02  .426124892669D-08 -.309003694668D+01
      .501051545143D-06  .709802028723D-03  .771926715970D-05  .528264593697D+04
      .432000000000D+05  .465661287308D-07 -.281985321501D+01 -.162981450558D-07
      .945908859186D+00  .200234375000D+03 -.102413314136D+01 -.686492880898D-08
     -.207865801302D-09  .000000000000D+00  .102800000000D+04  .000000000000D+00
      .200000000000D+01  .000000000000D+00 -.190000000000D-07 -.190000000000D-07
      .439500000000D+05  .100000000000D+01
C30 2025 09 14 12 00 00  .274503370747D-03  .866418048417D-11  .000000000000D+00
      .100000000000D+01  .112656250000D+03  .398730894457D-08  .158586243148D+00
      .537186861038D-05  .335676828399D-03  .496394932270D-05  .528265638924D+04
      .432000000000D+05 -.465661287308D-09 -.760691361277D+00 -.181607902050D-07
      .950116587552D+00  .258671875000D+03  .731239814045D+00 -.706136556279D-08
      .817891211309D-10  .000000000000D+00  .102800000000D+04  .000000000000D+00
      .200000000000D+01  .000000000000D+00 -.790000000000D-08 -.790000000000D-08
      .439500000000D+05  .100000000000D+01
C21 2025 09 14 12 00 00 -.970151391812D-03  .975042269147D-11  .000000000000D+00
      .100000000000D+01 -.913281250000D+02  .336264006746D-08  .255684846561D+01
     -.464543700218D-05  .519121647812D-03  .786827877164D-05  .528263357544D+04
      .432000000000D+05 -.162981450558D-07  .137955712014D+01  .791624188423D-08
      .984134952485D+00  .212562500000D+03  .987977965134D-01 -.650634244385D-08
      .992898501065D-10  .000000000000D+00  .102800000000D+04  .000000000000D+00
      .200000000000D+01  .000000000000D+00  .133000000000D-07  .133000000000D-07
      .439500000000D+05  .100000000000D+01
C22 2025 09 14 12 00 00  .386220170185D-03  .533173505346D-11  .000000000000D+00
      .100000000000D+01 -.905312500000D+02  .330156609491D-08  .253343053674D+01
     -.464962795377D-05  .736106652766D-03  .687269493937D-05  .528263992310D+04
      .432000000000D+05 -.498257577419D-07  .137948529086D+01 -.349245965481D-07
      .984144091335D+00  .231000000000D+03  .902325331666D+00 -.655205863383D-08
      .428589281035D-10  .000000000000D+00  .102800000000D+04  .000000000000D+00
      .200000000000D+01  .000000000000D+00  .157000000000D-07  .157000000000D-07
      .439500000000D+05  .100000000000D+01
C26 2025 09 14 12 00 00 -.521947629750D-03 -.569766456238D-11  .000000000000D+00
      .100000000000D+01  .876562500000D+01  .416124476112D-08 -.125336514392D+00
      .474508851767D-06  .930875656195D-03  .780448317528D-05  .528265306664D+04
      .432000000000D+05 -.745058059692D-08 -.284183502353D+01  .330619513988D-07
      .946095069640D+00  .195203125000D+03  .721826019591D+00 -.684564229134D-08
     -.165364030933D-09  .000000000000D+00  .102800000000D+04  .000000000000D+00
      .200000000000D+01  .000000000000D+00 -.320000000000D-08 -.320000000000D-08
      .439500000000D+05  .100000000000D+01
C06 2025 09 14 12 00 00  .913976691663D-03 -.346185302647D-10  .000000000000D+00
      .100000000000D+01 -.408437500000D+02  .152220626314D-08 -.178536664691D+01
     -.137044116855D-05  .476098572835D-02  .125411897898D-04  .649384824181D+04
      .432000000000D+05 -.898726284504D-07  .300645752122D+01  .106170773506D-06
      .948143428517D+00 -.137281250000D+03 -.252963587646D+01 -.194186660082D-08
      .141434462742D-09  .000000000000D+00  .102800000000D+04  .000000000000D+00
      .200000000000D+01  .000000000000D+00  .840000000000D-08 -.150000000000D-08
      .439500000000D+05  .000000000000D+00
C16 2025 09 14 12 00 00 -.790336052887D-03 -.377120557005D-10  .000000000000D+00
      .100000000000D+01 -.399218750000D+02  .144184577295D-08 -.202391915071D+01
     -.148918479681D-05  .912799302023D-02  .127330422401D-04  .649313253784D+04
      .432000000000D+05 -.931322574615D-07  .300635645552D+01  .828877091408D-07
      .963696126086D+00 -.140078125000D+03 -.216244451381D+01 -.185686306009D-08
      .150720563831D-09  .000000000000D+00  .102800000000D+04  .000000000000D+00
      .200000000000D+01  .000000000000D+00 -.270000000000D-08  .460000000000D-08
      .439500000000D+05  .000000000000D+00
C09 2025 09 14 12 00 00 -.139595009387D-03  .351025875034D-10  .000000000000D+00
      .100000000000D+01 -.225781250000D+02  .151720605486D-08 -.229416607167D+01
     -.691972672939D-06  .143946213648D-01  .125621445477D-04  .649365622520D+04
      .432000000000D+05  .619329512119D-07  .305338265792D+01  .117346644402D-06
      .953413008656D+00 -.142125000000D+03 -.226155369243D+01 -.191829419037D-08
      .971469037013D-10  .000000000000D+00  .102800000000D+04  .000000000000D+00
      .200000000000D+01  .000000000000D+00  .650000000000D-08  .380000000000D-08
      .439500000000D+05  .000000000000D+00
C07 2025 09 14 12 00 00  .189873971976D-03  .263362665009D-10  .000000000000D+00
      .100000000000D+01  .403875000000D+03  .156327940258D-08  .262089459487D+01
      .137267634273D-04  .479130132589D-02  .119432806969D-04  .649367918587D+04
      .432000000000D+05  .866129994392D-07 -.136035858933D+01  .414438545704D-07
      .837937333076D+00 -.169328125000D+03 -.252805506181D+01 -.218973406836D-08
     -.294655130712D-09  .000000000000D+00  .102800000000D+04  .000000000000D+00
      .200000000000D+01  .000000000000D+00  .148000000000D-07  .100000000000D-08
      .439500000000D+05  .000000000000D+00
C10 2025 09 14 12 00 00 -.185873825103D-03 -.208091321952D-10  .000000000000D+00
      .100000000000D+01  .422281250000D+03  .155935066750D-08  .233125878382D+01
      .142832286656D-04  .109661960742D-01  .113565474749D-04  .649354459572D+04
      .432000000000D+05 -.512227416039D-07 -.136547006460D+01 -.582076609135D-07
      .840340554917D+00 -.156906250000D+03 -.242626778635D+01 -.224830793676D-08
     -.305727020472D-09  .000000000000D+00  .102800000000D+04  .000000000000D+00
      .200000000000D+01  .000000000000D+00  .580000000000D-08  .300000000000D-08
      .439500000000D+05  .000000000000D+00
